NORAD_CAT_ID,OBJECT_NAME,OBJECT_TYPE,EPOCH,MEAN_MOTION,ECCENTRICITY,INCLINATION,RA_OF_ASC_NODE,ARG_OF_PERICENTER,MEAN_ANOMALY,BSTAR,MEAN_MOTION_DOT,MEAN_MOTION_DDOT,TLE_LINE0,TLE_LINE1,TLE_LINE2,SEMIMAJOR_AXIS,PERIOD,APOGEE,PERIGEE,DECAYED
49727.0,STARLINK-3242,PAYLOAD,2023-10-23 21:14:33,15.08848095,0.0001237,53.2162,94.8459,82.7727,277.3405,0.00025543,3.781e-05,0.0,0 STARLINK-3242,1 49727U 21115D   23296.88510498  .00003781  00000-0  25543-3 0  9995,2 49727  53.2162  94.8459 0001237  82.7727 277.3405 15.08848095104387,6917.856,95.437,540.576,538.865,0.0
49727.0,STARLINK-3242,PAYLOAD,2023-10-24 03:36:06,15.08838254,0.0001341,53.2162,93.6561,83.37,276.7444,0.00014889,2.082e-05,0.0,0 STARLINK-3242,1 49727U 21115D   23297.15006961  .00002082  00000-0  14889-3 0  9995,2 49727  53.2162  93.6561 0001341  83.3700 276.7444 15.08838254105543,6917.886,95.438,540.678,538.823,0.0
49727.0,STARLINK-3242,PAYLOAD,2023-10-25 14:34:34,15.0883876,0.0001247,53.216,87.1142,85.566,274.5475,4.9567e-05,5.01e-06,0.0,0 STARLINK-3242,1 49727U 21115D   23298.60734921  .00000501  00000-0  49567-4 0  9996,2 49727  53.2160  87.1142 0001247  85.5660 274.5475 15.08838760105764,6917.884,95.438,540.612,538.887,0.0
49727.0,STARLINK-3242,PAYLOAD,2023-10-26 14:25:22,15.08841396,0.0001391,53.2159,82.6544,86.6404,273.4748,9.3425e-05,1.199e-05,0.0,0 STARLINK-3242,1 49727U 21115D   23299.60095119  .00001199  00000-0  93425-4 0  9992,2 49727  53.2159  82.6544 0001391  86.6404 273.4748 15.08841396104798,6917.876,95.437,540.703,538.779,0.0
49727.0,STARLINK-3242,PAYLOAD,2023-10-26 16:00:45,15.08840797,0.0001368,53.2157,82.3565,89.5914,270.5235,0.00016871,2.398e-05,0.0,0 STARLINK-3242,1 49727U 21115D   23299.66719125  .00002398  00000-0  16871-3 0  9999,2 49727  53.2157  82.3565 0001368  89.5914 270.5235 15.08840797105927,6917.878,95.438,540.689,538.797,0.0
49727.0,STARLINK-3242,PAYLOAD,2023-10-27 09:29:59,15.08849085,0.0001443,53.2167,79.0856,88.9802,271.1356,0.00031023,4.654e-05,0.0,0 STARLINK-3242,1 49727U 21115D   23300.39582849  .00004654  00000-0  31023-3 0  9996,2 49727  53.2167  79.0856 0001443  88.9802 271.1356 15.08849085104915,6917.853,95.437,540.716,538.719,0.0
49727.0,STARLINK-3242,PAYLOAD,2023-10-27 19:02:17,15.08859445,0.0001448,53.2165,77.301,88.9972,271.1186,0.00040691,6.197e-05,0.0,0 STARLINK-3242,1 49727U 21115D   23300.79326218  .00006197  00000-0  40691-3 0  9991,2 49727  53.2165  77.3010 0001448  88.9972 271.1186 15.08859445106092,6917.821,95.436,540.688,538.684,0.0
49727.0,STARLINK-3242,PAYLOAD,2023-10-28 14:06:56,15.08835306,0.0001372,53.217,73.7322,89.4646,270.6504,-3.2919e-05,-8.12e-06,0.0,0 STARLINK-3242,1 49727U 21115D   23301.58815249 -.00000812  00000-0 -32919-4 0  9991,2 49727  53.2170  73.7322 0001372  89.4646 270.6504 15.08835306105091,6917.895,95.438,540.709,538.811,0.0
49727.0,STARLINK-3242,PAYLOAD,2023-10-28 15:42:19,15.0883814,0.0001387,53.2167,73.4345,99.135,260.9799,4.3347e-05,4.02e-06,0.0,0 STARLINK-3242,1 49727U 21115D   23301.65439156  .00000402  00000-0  43347-4 0  9998,2 49727  53.2167  73.4345 0001387  99.1350 260.9799 15.08838140106228,6917.886,95.438,540.711,538.792,0.0
49727.0,STARLINK-3242,PAYLOAD,2023-10-29 12:22:19,15.08855678,0.0001327,53.2171,69.5688,99.976,260.1382,0.00077222,0.00012028,0.0,0 STARLINK-3242,1 49727U 21115D   23302.51550901  .00012028  00000-0  77222-3 0  9991,2 49727  53.2171  69.5688 0001327  99.9760 260.1382 15.08855678106355,6917.832,95.437,540.615,538.779,0.0
49727.0,STARLINK-3242,PAYLOAD,2023-10-29 13:57:43,15.08861292,0.0001317,53.2173,69.2715,99.0965,261.0177,0.0010277,0.00016115,0.0,0 STARLINK-3242,1 49727U 21115D   23302.58174822  .00016115  00000-0  10277-2 0  9999,2 49727  53.2173  69.2715 0001317  99.0965 261.0177 15.08861292105240,6917.815,95.436,540.591,538.769,0.0
49727.0,STARLINK-3242,PAYLOAD,2023-10-29 15:33:06,15.08866568,0.0001361,53.2174,68.9734,99.6112,260.5034,0.001155,0.00018155,0.0,0 STARLINK-3242,1 49727U 21115D   23302.64798660  .00018155  00000-0  11550-2 0  9999,2 49727  53.2174  68.9734 0001361  99.6112 260.5034 15.08866568105255,6917.799,95.436,540.606,538.723,0.0
49727.0,STARLINK-3242,PAYLOAD,2023-10-30 12:13:07,15.0883689,0.000139,53.2175,65.1086,106.4355,253.679,-3.6054e-05,-8.62e-06,0.0,0 STARLINK-3242,1 49727U 21115D   23303.50910992 -.00000862  00000-0 -36054-4 0  9995,2 49727  53.2175  65.1086 0001390 106.4355 253.6790 15.08836890106509,6917.89,95.438,540.716,538.793,0.0
49727.0,STARLINK-3242,PAYLOAD,2023-10-30 15:23:53,15.08841655,0.0001297,53.2172,64.5154,108.3113,251.802,0.00032108,4.826e-05,0.0,0 STARLINK-3242,1 49727U 21115D   23303.64158971  .00004826  00000-0  32108-3 0  9998,2 49727  53.2172  64.5154 0001297 108.3113 251.8020 15.08841655105403,6917.875,95.437,540.638,538.843,0.0
49727.0,STARLINK-3242,PAYLOAD,2023-10-31 13:39:17,15.08835588,0.0001454,53.2186,60.354,109.6042,250.5107,0.00021449,3.127e-05,0.0,0 STARLINK-3242,1 49727U 21115D   23304.56895743  .00003127  00000-0  21449-3 0  9994,2 49727  53.2186  60.3540 0001454 109.6042 250.5107 15.08835588105546,6917.894,95.438,540.765,538.753,0.0
49727.0,STARLINK-3242,PAYLOAD,2023-10-31 16:50:04,15.08838993,0.0001547,53.2187,59.7598,115.0502,245.0651,0.00044782,6.846e-05,0.0,0 STARLINK-3242,1 49727U 21115D   23304.70143731  .00006846  00000-0  44782-3 0  9999,2 49727  53.2187  59.7598 0001547 115.0502 245.0651 15.08838993106689,6917.883,95.438,540.819,538.678,0.0
49727.0,STARLINK-3242,PAYLOAD,2023-11-01 13:30:04,15.08846631,0.0001377,53.2171,55.893,98.4269,261.688,0.0003535,5.343e-05,0.0,0 STARLINK-3242,1 49727U 21115D   23305.56255674  .00005343  00000-0  35350-3 0  9996,2 49727  53.2171  55.8930 0001377  98.4269 261.6880 15.08846631105690,6917.86,95.437,540.678,538.773,0.0
49727.0,STARLINK-3242,PAYLOAD,2023-11-01 16:40:51,15.08854368,0.00016,53.2174,55.2967,93.7726,266.3449,0.00052962,8.154e-05,0.0,0 STARLINK-3242,1 49727U 21115D   23305.69503484  .00008154  00000-0  52962-3 0  9996,2 49727  53.2174  55.2967 0001600  93.7726 266.3449 15.08854368105714,6917.836,95.437,540.808,538.595,0.0
49727.0,STARLINK-3242,PAYLOAD,2023-11-02 13:20:52,15.0884098,0.0001441,53.2171,51.4333,77.2982,282.8171,0.0001354,1.868e-05,0.0,0 STARLINK-3242,1 49727U 21115D   23306.55615947  .00001868  00000-0  13540-3 0  9994,2 49727  53.2171  51.4333 0001441  77.2982 282.8171 15.08840980106968,6917.877,95.437,540.739,538.746,0.0
49727.0,STARLINK-3242,PAYLOAD,2023-11-02 14:56:15,15.08848125,0.0001346,53.2169,51.1351,84.2528,275.8618,0.00043389,6.626e-05,0.0,0 STARLINK-3242,1 49727U 21115D   23306.62239761  .00006626  00000-0  43389-3 0  9999,2 49727  53.2169  51.1351 0001346  84.2528 275.8618 15.08848125105854,6917.856,95.437,540.652,538.789,0.0
49727.0,STARLINK-3242,PAYLOAD,2023-11-03 13:11:39,15.08848062,0.000161,53.2178,46.9718,84.0584,276.0592,0.00029149,4.355e-05,0.0,0 STARLINK-3242,1 49727U 21115D   23307.54975871  .00004355  00000-0  29149-3 0  9995,2 49727  53.2178  46.9718 0001610  84.0584 276.0592 15.08848062105996,6917.856,95.437,540.835,538.607,0.0
49727.0,STARLINK-3242,PAYLOAD,2023-11-04 00:19:21,15.0884457,0.0001484,53.2173,44.8917,83.5666,276.5495,0.00028153,4.196e-05,0.0,0 STARLINK-3242,1 49727U 21115D   23308.01344013  .00004196  00000-0  28153-3 0  9993,2 49727  53.2173  44.8917 0001484  83.5666 276.5495 15.08844570107183,6917.866,95.437,540.758,538.705,0.0
49727.0,STARLINK-3242,PAYLOAD,2023-11-04 13:02:26,15.0884317,0.0001455,53.2176,42.5121,85.747,274.3688,0.00014519,2.024e-05,0.0,0 STARLINK-3242,1 49727U 21115D   23308.54336119  .00002024  00000-0  14519-3 0  9998,2 49727  53.2176  42.5121 0001455  85.7470 274.3688 15.08843170106143,6917.871,95.437,540.742,538.729,0.0
49727.0,STARLINK-3242,PAYLOAD,2023-11-05 12:53:12,15.08861475,0.0001439,53.2185,38.0499,89.8879,270.2278,0.00050258,7.724e-05,0.0,0 STARLINK-3242,1 49727U 21115D   23309.53695364  .00007724  00000-0  50258-3 0  9990,2 49727  53.2185  38.0499 0001439  89.8879 270.2278 15.08861475106295,6917.815,95.436,540.675,538.684,0.0
49727.0,STARLINK-3242,PAYLOAD,2023-11-05 22:25:31,15.08867666,0.0001371,53.2181,36.267,89.8929,270.222,0.00059878,9.262e-05,0.0,0 STARLINK-3242,1 49727U 21115D   23309.93438895  .00009262  00000-0  59878-3 0  9994,2 49727  53.2181  36.2670 0001371  89.8929 270.2220 15.08867666106355,6917.796,95.436,540.609,538.712,0.0
49727.0,STARLINK-3242,PAYLOAD,2023-11-06 12:44:00,15.08808674,0.0001346,53.2177,33.5902,83.3443,276.7702,-0.00096025,-0.00015524,0.0,0 STARLINK-3242,1 49727U 21115D   23310.53056385 -.00015524  00000-0 -96025-3 0  9997,2 49727  53.2177  33.5902 0001346  83.3443 276.7702 15.08808674107564,6917.976,95.44,540.772,538.91,0.0
49727.0,STARLINK-3242,PAYLOAD,2023-11-07 12:34:50,15.08795981,0.0001355,53.2182,29.1304,84.6715,275.4431,-0.0004235,-7.013e-05,0.0,0 STARLINK-3242,1 49727U 21115D   23311.52419017 -.00007013  00000-0 -42350-3 0  9998,2 49727  53.2182  29.1304 0001355  84.6715 275.4431 15.08795981107711,6918.015,95.44,540.817,538.943,0.0
49727.0,STARLINK-3242,PAYLOAD,2023-11-07 23:42:32,15.08816893,8.77e-05,53.2184,27.0485,88.4091,271.7002,0.0003408,5.137e-05,0.0,0 STARLINK-3242,1 49727U 21115D   23311.98787157  .00005137  00000-0  34080-3 0  9995,2 49727  53.2184  27.0485 0000877  88.4091 271.7002 15.08816893107783,6917.951,95.439,540.423,539.209,0.0
49727.0,STARLINK-3242,PAYLOAD,2023-11-08 10:50:13,15.0884545,0.0001276,53.2182,24.9688,88.7122,271.4016,0.00089422,0.00013974,0.0,0 STARLINK-3242,1 49727U 21115D   23312.45154937  .00013974  00000-0  89422-3 0  9990,2 49727  53.2182  24.9688 0001276  88.7122 271.4016 15.08845450107855,6917.864,95.437,540.611,538.846,0.0
49727.0,STARLINK-3242,PAYLOAD,2023-11-08 12:25:36,15.0884627,0.0001294,53.2182,24.6713,85.4711,274.6429,0.00088746,0.00013867,0.0,0 STARLINK-3242,1 49727U 21115D   23312.51778902  .00013867  00000-0  88746-3 0  9990,2 49727  53.2182  24.6713 0001294  85.4711 274.6429 15.08846270106740,6917.861,95.437,540.621,538.831,0.0
